LEMUR-1                 
1 40044U 14033AL  24158.43098767  .00003093  00000+0  41745-3 0  9995
2 40044  97.6979 321.0164 0053967 343.3273  16.6163 14.78798986535714
LEMUR-2-ANUBHAVTHAKUR   
1 41873U 16062E   24158.42201049  .00230639  00000+0  11034-2 0  9993
2 41873  51.6595 119.3783 0006636  49.2136 310.9442 15.81539597420422
LEMUR-2-GREENBERG       
1 42837U 17042N   24158.46953331  .00012451  00000+0  89619-3 0  9990
2 42837  97.3639 347.6795 0016356  71.8942 288.4065 15.04234819376035
LEMUR-2-ANDIS           
1 42838U 17042P   24158.49544951  .00011742  00000+0  85455-3 0  9994
2 42838  97.3610 347.4671 0018175  77.0853 283.2402 15.03806472376033
LEMUR-2-MONSON          
1 42839U 17042Q   24158.50329880  .00010528  00000+0  78461-3 0  9999
2 42839  97.3951 347.3855 0013028  61.0715 299.1815 15.03002738375987
LEMUR-2-FURIAUS         
1 42840U 17042R   24158.59786453  .00010900  00000+0  81035-3 0  9998
2 42840  97.3663 347.5877 0014957 117.6395 242.6351 15.03062435375998
LEMUR-2-PETERG          
1 42841U 17042S   24158.48217051  .00012562  00000+0  92296-3 0  9997
2 42841  97.3917 349.2141 0007067  58.1224 302.0689 15.03546917376053
LEMUR-2-DEMBITZ         
1 42842U 17042T   24158.46887383  .00011624  00000+0  85707-3 0  9994
2 42842  97.3812 348.9901 0013018  80.0350 280.2344 15.03382260376071
LEMUR-2-ZACHARY         
1 42845U 17042W   24158.50296538  .00015262  00000+0  10068-2 0  9997
2 42845  97.3766 349.5387 0009675 112.1291 248.0965 15.07510957376253
LEMUR-2-JIN-LUEN        
1 43182U 18014C   24158.29719292  .00015714  00000+0  90940-3 0  9995
2 43182  97.5896  61.4974 0013731  39.2680 320.9544 15.12250360347105
LEMUR-2-URAMCHANSOL     
1 43183U 18014D   24158.55615113  .00028190  00000+0  14825-2 0  9991
2 43183  97.5906  63.2317 0013683  28.8368 331.3618 15.15542417347234
LEMUR-2-KADI            
1 43184U 18014E   24158.45490407  .00016792  00000+0  94603-3 0  9996
2 43184  97.5711  61.1427 0011534  19.6542 340.5131 15.13224989347144
LEMUR-2-THENICKMOLO     
1 43185U 18014F   24158.29499379  .00020604  00000+0  11121-2 0  9996
2 43185  97.5858  62.0810 0008591  24.8615 335.3029 15.14736578347153
LEMUR-2-CHRISTINAHOLT   
1 43882U 18111G   24158.51386626  .00029488  00000+0  14040-2 0  9995
2 43882  97.6360  71.2551 0008117  24.9734 335.1891 15.19071439298161
LEMUR-2-TINYKEV         
1 43883U 18111H   24158.33127672  .00040891  00000+0  17402-2 0  9996
2 43883  97.6144  71.2442 0008446  28.4583 331.7113 15.22847196298240
LEMUR-2-REMY-COLTON     
1 43884U 18111J   24158.26123032  .00027622  00000+0  13047-2 0  9993
2 43884  97.6303  71.6490 0003435  73.3961 286.7650 15.19385865296190
LEMUR-2-GUSTAVO         
1 43885U 18111K   24158.33480826  .00026162  00000+0  12639-2 0  9993
2 43885  97.6285  70.7899 0012973  19.5532 340.6197 15.18546070298145
LEMUR-2-ZO              
1 43886U 18111L   24158.48088935  .00027724  00000+0  13497-2 0  9993
2 43886  97.6183  70.4163 0012545  36.1790 324.0289 15.18269838298175
LEMUR-2-NATALIEMURRAY   
1 43887U 18111M   24158.49363177  .00029514  00000+0  14101-2 0  9991
2 43887  97.6318  71.9589 0007385 352.5545   7.5578 15.18956119298217
LEMUR-2-SARAHBETTYBOO   
1 43888U 18111N   24158.34125975  .00028312  00000+0  13156-2 0  9992
2 43888  97.6677  74.9646 0012785  63.1620 297.0920 15.19878778298225
LEMUR-2-DAISY-HARPER    
1 43889U 18111P   24158.33497365  .00032295  00000+0  13943-2 0  9996
2 43889  97.6528  75.0257 0010929  63.5940 296.6417 15.22391484298266
LEMUR-2-ALEX-MADDY      
1 44407U 19038X   24158.27044818  .00275321  00000+0  16014-2 0  9997
2 44407  97.6513 162.2319 0011772 113.3229 246.9277 15.77627502273242
LEMUR-2-JPGSQUARED      
1 44855U 19089D   24158.42830601  .00113752  00000+0  24826-2 0  9999
2 44855  36.9644  55.4048 0005199 320.3454  39.6921 15.42916179247278
LEMUR-2-HIMOMANDDAD     
1 44860U 19089J   24158.39653160  .00200231  00000+0  31572-2 0  9999
2 44860  36.9620  50.3435 0008211 303.1410  56.8561 15.51904919247204
LEMUR-2-PAPPY           
1 44861U 19089K   24158.46448624  .00069093  00000+0  18559-2 0  9994
2 44861  36.9595  68.6861 0004523 301.2470  58.7840 15.36827606247074
LEMUR-2-THEODOSIA       
1 44863U 19089M   24158.07305835  .00129464  00000+0  26869-2 0  9991
2 44863  36.9658  55.2148 0005306 327.3509  32.6919 15.44336525247092
LEMUR-2-SLICERS         
1 46500U 20068Q   24158.38639369  .00093182  00000+0  18977-2 0  9994
2 46500  97.7803 127.5423 0004125  38.9679 321.1866 15.45904361203379
LEMUR-2-DAYWZAGOODDAY   
1 46501U 20068R   24158.44670595  .00064634  00000+0  15959-2 0  9995
2 46501  97.7881 127.0953 0005602  19.5113 340.6345 15.40264755203322
LEMUR-2-SUSURRUS        
1 46502U 20068S   24158.45184820  .00093722  00000+0  19054-2 0  9998
2 46502  97.7843 127.7127 0004452  32.4574 327.6947 15.45951760203381
LEMUR-2-NICHOL          
1 46503U 20068T   24158.46959912  .00050255  00000+0  14012-2 0  9995
2 46503  97.7910 125.6152 0006985  15.8090 344.3369 15.36579241203242
LEMUR-2-OZARAK          
1 46908U 20081D   24158.44915531  .00052089  00000+0  14349-2 0  9996
2 46908  36.8945 194.7285 0004425 215.2654 144.7806 15.36130606197244
LEMUR-2-JINDRA          
1 46909U 20081E   24158.42267622  .00092268  00000+0  17438-2 0  9991
2 46909  36.8922 175.7546 0006617 192.6998 167.3592 15.47200193197450
LEMUR-2-WALLACE         
1 46910U 20081F   24158.41240352  .00080746  00000+0  17173-2 0  9997
2 46910  36.8876 182.1905 0005278 218.9426 141.0949 15.43817376197370
LEMUR-2-JEREMIAH        
1 46911U 20081G   24158.47852528  .00042255  00000+0  12220-2 0  9999
2 46911  36.9017 194.2921 0004676 228.2399 131.7953 15.34668315197261
LEMUR-2-CHANTAL         
1 47529U 21006DV  24158.46578120  .00600023  13786-3  22244-2 0  9994
2 47529  97.3216 226.2940 0011487 224.4075 135.6277 15.87984104188507
LEMUR-2-AMANDA-SVANTE   
1 48269U 21034B   24158.13620238  .00014227  00000+0  11799-2 0  9998
2 48269  97.6649 223.7134 0003568 157.9340 202.2037 14.98908594168845
LEMUR-2-SPECIAL-K       
1 48273U 21034F   24158.14762945  .00015207  00000+0  12260-2 0  9999
2 48273  97.6660 223.9806 0002133 187.1840 172.9353 14.99987450168874
LEMUR-2-ANNABANANA      
1 48923U 21059AW  24158.40464448  .00232071  21555-4  81807-3 0  9991
2 48923  97.5714 324.8676 0004599 226.3543 133.7348 15.89103061164856
LEMUR-2-ROHOVITHSA      
1 51036U 22002BE  24158.59298435  .00177243  00000+0  18971-2 0  9997
2 51036  97.3880 234.0952 0002101 164.3475 195.7849 15.63281327133346
LEMUR-2-MIRIWARI        
1 51054U 22002BY  24158.46692667  .00380646  00000+0  19525-2 0  9997
2 51054  97.3787 235.6133 0007920 230.4491 129.6077 15.80216167133446
LEMUR-2-DJIRANG         
1 51058U 22002CC  24158.46943372  .00450575  00000+0  23333-2 0  9994
2 51058  97.3754 235.3343 0007440 233.6568 126.4013 15.79831194133447
LEMUR-2-HANCOM-1        
1 52740U 22057J   24158.36506380  .00205726  00000+0  16421-2 0  9992
2 52740  97.5746 292.5304 0003892 238.8821 121.2059 15.70499362113356
LEMUR-2-PHILARI         
1 55013U 23001E   24158.54571480  .00175650  00000+0  26562-2 0  9990
2 55013  97.4218 225.0257 0007906 194.6823 165.4202 15.54046654 79461
LEMUR-2-DISCLAIMER      
1 55014U 23001F   24158.16079765  .00211146  00000+0  24647-2 0  9991
2 55014  97.4202 225.4884 0008743 205.0728 155.0105 15.60884643 79446
LEMUR-2-STEVEALBERS     
1 55017U 23001J   24158.42742174  .00088054  00000+0  17573-2 0  9994
2 55017  97.4206 223.7123 0007625 175.6125 184.5193 15.46498357 79374
LEMUR-2-MMOLO           
1 55038U 23001AF  24158.18003423  .00067187  00000+0  15351-2 0  9993
2 55038  97.4315 224.8027 0011650 184.6360 175.4781 15.42544023 79388
LEMUR-2-FUENTETAJA-01   
1 55088U 23001CH  24158.16329148  .00185751  00000+0  25688-2 0  9993
2 55088  97.4289 225.8111 0010316 183.4299 176.6886 15.56434469 79447
LEMUR-2-ONREFLECTION    
1 56182U 23054E   24158.60389274  .00067457  00000+0  13201-2 0  9992
2 56182  97.3572  57.0419 0005817 171.7123 188.4224 15.47167023 64595
LEMUR-2-SPACEGUS        
1 56187U 23054K   24158.56589207  .00152627  00000+0  23271-2 0  9992
2 56187  97.3559  57.6170 0008163 148.2668 211.9079 15.53898971 64629
LEMUR-2-EMBRIONOVIS     
1 56970U 23084AQ  24158.27141149  .00009716  00000+0  45366-3 0  9992
2 56970  97.5478 277.2049 0014328  54.9894 305.2684 15.19943688 54468
LEMUR-2-NAZIYAH         
1 56974U 23084AU  24158.33992976  .00051459  00000+0  15555-2 0  9992
2 56974  97.5321 279.4586 0008024  27.4056 332.7608 15.34022686 54655
LEMUR-2-AADAM-ALIYAH    
1 56977U 23084AX  24158.59949152  .00046336  00000+0  14010-2 0  9994
2 56977  97.5345 279.8310 0008296  30.9932 329.1799 15.34038839 54698
LEMUR-2-MANO            
1 57390U 23100E   24158.48926241  .00013192  00000+0  93505-3 0  9996
2 57390  99.4934   0.0383 0012618 331.1787  28.8735 15.04909533 48673
LEMUR-2-DEVERILL-M-T    
1 57391U 23100F   24158.51186068  .00006896  00000+0  49884-3 0  9990
2 57391  99.4712 359.6048 0012826 328.3850  31.6598 15.04404581 48682
LEMUR-2-BASS            
1 58259U 23174D   24158.17512116  .00012518  00000+0  61956-3 0  9996
2 58259  97.4538 232.4740 0010213 284.2743  75.7357 15.17891079 32014
LEMUR-2-DILIGHTFUL      
1 58260U 23174E   24158.15588783  .00019596  00000+0  86991-3 0  9998
2 58260  97.4599 233.1237 0009603 276.5670  83.4473 15.21558650 32044
LEMUR-2-GOOD-VIBES      
1 58263U 23174H   24158.55153817  .00018571  00000+0  82463-3 0  9993
2 58263  97.4532 233.3569 0009011 280.3409  79.6810 15.21565913 32109
LEMUR-2-SANITA-VETRA    
1 58267U 23174M   24158.48301173  .00028918  00000+0  12811-2 0  9994
2 58267  97.4532 233.2589 0008664 275.2179  84.8068 15.21554790 32096
LEMUR-2-MARAPAMASM      
1 58332U 23174CE  24158.46977219  .00028187  00000+0  10981-2 0  9999
2 58332  97.4523 234.1626 0008338 235.2833 124.7620 15.25904752 32158
LEMUR-2-THE-CLEANER     
1 58333U 23174CF  24158.44689621  .00020378  00000+0  86925-3 0  9991
2 58333  97.4532 233.7667 0009219 233.1650 126.8742 15.22914098 32128
LEMUR-2-MANGO2A         
1 58335U 23174CH  24158.20336550  .00064547  00000+0  21000-2 0  9995
2 58335  97.4516 234.5355 0009540 226.2106 133.8347 15.31594805 32153
LEMUR-2-JK0903EM1407    
1 58336U 23174CJ  24158.49999189  .00015676  00000+0  72776-3 0  9996
2 58336  97.4534 233.3922 0008466 236.8551 123.1872 15.20076099 32106
LEMUR-2-MANGO2B         
1 58337U 23174CK  24158.46409396  .00051344  00000+0  16765-2 0  9997
2 58337  97.4574 234.9496 0010317 229.4134 130.6210 15.31536339 32195
LEMUR-2-MJR092620       
1 58340U 23174CN  24158.47527409  .00015161  00000+0  69848-3 0  9996
2 58340  97.4597 233.5911 0009631 234.8845 125.1488 15.20339616 32101
